NORAD_CAT_ID,OBJECT_NAME,OBJECT_TYPE,EPOCH,MEAN_MOTION,ECCENTRICITY,INCLINATION,RA_OF_ASC_NODE,ARG_OF_PERICENTER,MEAN_ANOMALY,BSTAR,MEAN_MOTION_DOT,MEAN_MOTION_DDOT,TLE_LINE0,TLE_LINE1,TLE_LINE2,SEMIMAJOR_AXIS,PERIOD,APOGEE,PERIGEE,DECAYED
52681.0,STARLINK-4068,PAYLOAD,2023-06-03 18:45:04,15.08840183,0.0001224,53.2168,357.7704,102.954,257.1589,0.00011672,1.57e-05,0.0,0 STARLINK-4068,1 52681U 22053AB  23154.78129715  .00001570  00000-0  11672-3 0  9992,2 52681  53.2168 357.7704 0001224 102.9540 257.1589 15.08840183 58280,6917.88,95.438,540.592,538.898,0.0
52681.0,STARLINK-4068,PAYLOAD,2023-06-03 20:20:27,15.08841884,0.0001131,53.2165,357.474,88.4048,271.7074,0.00012825,1.754e-05,0.0,0 STARLINK-4068,1 52681U 22053AB  23154.84753674  .00001754  00000-0  12825-3 0  9991,2 52681  53.2165 357.4740 0001131  88.4048 271.7074 15.08841884 58686,6917.875,95.437,540.522,538.957,0.0
52681.0,STARLINK-4068,PAYLOAD,2023-06-04 13:49:41,15.08839684,0.0001078,53.217,354.2065,86.6508,273.4608,2.1365e-05,5.2e-07,0.0,0 STARLINK-4068,1 52681U 22053AB  23155.57617869  .00000052  00000-0  21365-4 0  9997,2 52681  53.2170 354.2065 0001078  86.6508 273.4608 15.08839684 58797,6917.881,95.438,540.492,539.001,0.0
52681.0,STARLINK-4068,PAYLOAD,2023-06-04 20:11:14,15.08846071,0.0001141,53.2171,353.018,89.201,270.9113,0.00011792,1.59e-05,0.0,0 STARLINK-4068,1 52681U 22053AB  23155.84113527  .00001590  00000-0  11792-3 0  9999,2 52681  53.2171 353.0180 0001141  89.2010 270.9113 15.08846071 58444,6917.862,95.437,540.516,538.938,0.0
52681.0,STARLINK-4068,PAYLOAD,2023-06-05 12:05:05,15.08839668,0.0001112,53.2176,350.0455,87.8294,272.2825,0.00011419,1.53e-05,0.0,0 STARLINK-4068,1 52681U 22053AB  23156.50353814  .00001530  00000-0  11419-3 0  9998,2 52681  53.2176 350.0455 0001112  87.8294 272.2825 15.08839668 58930,6917.881,95.438,540.516,538.977,0.0
52681.0,STARLINK-4068,PAYLOAD,2023-06-05 18:26:38,15.08834707,0.0001175,53.218,348.8547,91.9421,268.1706,5.055e-05,5.17e-06,0.0,0 STARLINK-4068,1 52681U 22053AB  23156.76850408  .00000517  00000-0  50550-4 0  9991,2 52681  53.2180 348.8547 0001175  91.9421 268.1706 15.08834707 58974,6917.897,95.438,540.574,538.949,0.0
52681.0,STARLINK-4068,PAYLOAD,2023-06-06 00:48:10,15.08840601,0.0001096,53.2172,347.6641,86.638,273.4738,9.9769e-05,1.3e-05,0.0,0 STARLINK-4068,1 52681U 22053AB  23157.03345912  .00001300  00000-0  99769-4 0  9997,2 52681  53.2172 347.6641 0001096  86.6380 273.4738 15.08840601 59014,6917.879,95.438,540.502,538.985,0.0
52681.0,STARLINK-4068,PAYLOAD,2023-06-06 15:06:40,15.08829443,0.0001399,53.2166,344.9875,83.8031,276.3121,-5.7944e-05,-1.21e-05,0.0,0 STARLINK-4068,1 52681U 22053AB  23157.62963469 -.00001210  00000-0 -57944-4 0  9996,2 52681  53.2166 344.9875 0001399  83.8031 276.3121 15.08829443 58719,6917.913,95.438,540.745,538.81,0.0
52681.0,STARLINK-4068,PAYLOAD,2023-06-06 23:03:37,15.08810426,0.000117,53.2168,343.5006,88.25,271.8626,-0.00021017,-3.628e-05,0.0,0 STARLINK-4068,1 52681U 22053AB  23157.96085505 -.00003628  00000-0 -21017-3 0  9995,2 52681  53.2168 343.5006 0001170  88.2500 271.8626 15.08810426 58765,6917.971,95.439,540.645,539.026,0.0
52681.0,STARLINK-4068,PAYLOAD,2023-06-07 11:46:41,15.08830143,6.8e-05,53.2158,341.1202,60.6736,299.4324,4.2358e-05,3.86e-06,0.0,0 STARLINK-4068,1 52681U 22053AB  23158.49075952  .00000386  00000-0  42358-4 0  9997,2 52681  53.2158 341.1202 0000680  60.6736 299.4324 15.08830143 58844,6917.911,95.438,540.246,539.305,0.0
52681.0,STARLINK-4068,PAYLOAD,2023-06-07 13:22:04,15.08830026,6.79e-05,53.2169,340.8231,72.2073,287.8993,3.8006e-05,3.17e-06,0.0,0 STARLINK-4068,1 52681U 22053AB  23158.55700003  .00000317  00000-0  38006-4 0  9995,2 52681  53.2169 340.8231 0000679  72.2073 287.8993 15.08830026 59243,6917.911,95.438,540.246,539.306,0.0
52681.0,STARLINK-4068,PAYLOAD,2023-06-07 18:08:13,15.08844996,0.0001281,53.2169,339.931,74.0328,286.0806,0.000165,2.339e-05,0.0,0 STARLINK-4068,1 52681U 22053AB  23158.75570904  .00002339  00000-0  16500-3 0  9992,2 52681  53.2169 339.9310 0001281  74.0328 286.0806 15.08844996 58887,6917.865,95.437,540.616,538.844,0.0
52681.0,STARLINK-4068,PAYLOAD,2023-06-07 21:18:59,15.08851653,0.0001144,53.2164,339.3351,77.6439,282.4682,0.00020889,3.039e-05,0.0,0 STARLINK-4068,1 52681U 22053AB  23158.88818356  .00003039  00000-0  20889-3 0  9995,2 52681  53.2164 339.3351 0001144  77.6439 282.4682 15.08851653 59297,6917.845,95.437,540.501,538.918,0.0
52681.0,STARLINK-4068,PAYLOAD,2023-06-08 17:58:59,15.08842596,9.75e-05,53.217,335.47,89.0792,271.0312,0.00031919,4.796e-05,0.0,0 STARLINK-4068,1 52681U 22053AB  23159.74930544  .00004796  00000-0  31919-3 0  9992,2 52681  53.2170 335.4700 0000975  89.0792 271.0312 15.08842596 59424,6917.872,95.437,540.412,539.063,0.0
52681.0,STARLINK-4068,PAYLOAD,2023-06-08 21:09:45,15.08845809,0.0001362,53.2166,334.8755,84.8694,275.2453,0.00046071,7.053e-05,0.0,0 STARLINK-4068,1 52681U 22053AB  23159.88178090  .00007053  00000-0  46071-3 0  9991,2 52681  53.2166 334.8755 0001362  84.8694 275.2453 15.08845809 59058,6917.863,95.437,540.67,538.785,0.0
52681.0,STARLINK-4068,PAYLOAD,2023-06-09 11:28:14,15.08845012,0.0001247,53.2172,332.1996,82.5153,277.5981,0.00014294,1.988e-05,0.0,0 STARLINK-4068,1 52681U 22053AB  23160.47794872  .00001988  00000-0  14294-3 0  9993,2 52681  53.2172 332.1996 0001247  82.5153 277.5981 15.08845012 59147,6917.865,95.437,540.593,538.867,0.0
52681.0,STARLINK-4068,PAYLOAD,2023-06-09 17:49:47,15.08848171,0.0001411,53.2163,331.0115,83.4122,276.7031,2.0337e-05,3.6e-07,0.0,0 STARLINK-4068,1 52681U 22053AB  23160.74291001  .00000036  00000-0  20337-4 0  9998,2 52681  53.2163 331.0115 0001411  83.4122 276.7031 15.08848171 59570,6917.855,95.437,540.697,538.744,0.0
52681.0,STARLINK-4068,PAYLOAD,2023-06-10 11:19:01,15.08849655,0.0001337,53.2164,327.7399,86.5604,273.5541,-6.8156e-05,-1.373e-05,0.0,0 STARLINK-4068,1 52681U 22053AB  23161.47154467 -.00001373  00000-0 -68156-4 0  9991,2 52681  53.2164 327.7399 0001337  86.5604 273.5541 15.08849655 59684,6917.851,95.437,540.641,538.791,0.0
52681.0,STARLINK-4068,PAYLOAD,2023-06-10 20:51:19,15.08851842,0.0001348,53.2164,325.9552,87.6349,272.4797,-4.8462e-05,-1.059e-05,0.0,0 STARLINK-4068,1 52681U 22053AB  23161.86898021 -.00001059  00000-0 -48462-4 0  9994,2 52681  53.2164 325.9552 0001348  87.6349 272.4797 15.08851842 59744,6917.844,95.437,540.642,538.777,0.0
52681.0,STARLINK-4068,PAYLOAD,2023-06-11 11:09:48,15.08836943,0.0001268,53.2165,323.2786,99.0763,261.0373,6.1653e-05,6.93e-06,0.0,0 STARLINK-4068,1 52681U 22053AB  23162.46514552  .00000693  00000-0  61653-4 0  9993,2 52681  53.2165 323.2786 0001268  99.0763 261.0373 15.08836943 59832,6917.89,95.438,540.632,538.878,0.0
52681.0,STARLINK-4068,PAYLOAD,2023-06-11 17:31:20,15.0884025,0.0001245,53.2164,322.0896,93.0745,267.039,0.00010269,1.347e-05,0.0,0 STARLINK-4068,1 52681U 22053AB  23162.73010286  .00001347  00000-0  10269-3 0  9991,2 52681  53.2164 322.0896 0001245  93.0745 267.0390 15.08840250 59481,6917.88,95.438,540.606,538.883,0.0
52681.0,STARLINK-4068,PAYLOAD,2023-06-11 20:42:06,15.08845502,0.0001166,53.2165,321.4952,92.2129,267.8997,2.6241e-05,1.3e-06,0.0,0 STARLINK-4068,1 52681U 22053AB  23162.86258089  .00000130  00000-0  26241-4 0  9997,2 52681  53.2165 321.4952 0001166  92.2129 267.8997 15.08845502 59898,6917.864,95.437,540.535,538.922,0.0
52681.0,STARLINK-4068,PAYLOAD,2023-06-12 11:00:35,15.08834039,0.0001219,53.2174,318.8189,99.7447,260.3683,2.1513e-05,5.5e-07,0.0,0 STARLINK-4068,1 52681U 22053AB  23163.45874916  .00000055  00000-0  21513-4 0  9999,2 52681  53.2174 318.8189 0001219  99.7447 260.3683 15.08834039 59594,6917.899,95.438,540.607,538.92,0.0
52681.0,STARLINK-4068,PAYLOAD,2023-06-12 17:22:07,15.08841361,0.0001514,53.2175,317.6286,95.1355,264.981,8.1806e-05,1.014e-05,0.0,0 STARLINK-4068,1 52681U 22053AB  23163.72370331  .00001014  00000-0  81806-4 0  9998,2 52681  53.2175 317.6286 0001514  95.1355 264.9810 15.08841361 59639,6917.876,95.437,540.789,538.694,0.0
52681.0,STARLINK-4068,PAYLOAD,2023-06-13 09:16:00,15.08822128,0.0001338,53.217,314.6578,87.8177,272.2969,0.00028799,4.296e-05,0.0,0 STARLINK-4068,1 52681U 22053AB  23164.38611548  .00004296  00000-0  28799-3 0  9995,2 52681  53.2170 314.6578 0001338  87.8177 272.2969 15.08822128 59737,6917.935,95.439,540.726,538.874,0.0
52681.0,STARLINK-4068,PAYLOAD,2023-06-13 20:23:41,15.08841966,0.0001231,53.2176,312.5759,98.0799,262.0332,8.9216e-05,1.132e-05,0.0,0 STARLINK-4068,1 52681U 22053AB  23164.84978523  .00001132  00000-0  89216-4 0  9993,2 52681  53.2176 312.5759 0001231  98.0799 262.0332 15.08841966 60191,6917.874,95.437,540.591,538.888,0.0
52681.0,STARLINK-4068,PAYLOAD,2023-06-14 10:42:11,15.08823895,6.72e-05,53.2184,309.9008,49.3042,310.8008,-2.3689e-05,-6.64e-06,0.0,0 STARLINK-4068,1 52681U 22053AB  23165.44596163 -.00000664  00000-0 -23689-4 0  9999,2 52681  53.2184 309.9008 0000672  49.3042 310.8008 15.08823895 59893,6917.93,95.439,540.26,539.33,0.0
52681.0,STARLINK-4068,PAYLOAD,2023-06-14 12:17:33,15.08831101,0.0001501,53.2178,309.5999,102.9014,257.2146,4.2069e-05,3.81e-06,0.0,0 STARLINK-4068,1 52681U 22053AB  23165.51219540  .00000381  00000-0  42069-4 0  9995,2 52681  53.2178 309.5999 0001501 102.9014 257.2146 15.08831101 60290,6917.908,95.438,540.811,538.734,0.0
52681.0,STARLINK-4068,PAYLOAD,2023-06-14 18:39:06,15.08832208,0.0001073,53.2175,308.4109,87.6511,272.4604,3.194e-05,2.2e-06,0.0,0 STARLINK-4068,1 52681U 22053AB  23165.77715688  .00000220  00000-0  31940-4 0  9995,2 52681  53.2175 308.4109 0001073  87.6511 272.4604 15.08832208 60335,6917.904,95.438,540.511,539.027,0.0
52681.0,STARLINK-4068,PAYLOAD,2023-06-15 08:57:34,15.08838181,0.0001108,53.2175,305.7353,91.6198,268.4921,0.00011088,1.477e-05,0.0,0 STARLINK-4068,1 52681U 22053AB  23166.37331345  .00001477  00000-0  11088-3 0  9991,2 52681  53.2175 305.7353 0001108  91.6198 268.4921 15.08838181 60031,6917.886,95.438,540.517,538.984,0.0
